start=new Date('2022-08-13T00:00:00.000Z').valueOf();
sats=[{"PERIAPSIS":"546.214","MEAN_MOTION_DDOT":"0.0000000000000","INCLINATION":"53.0539","DECAY_DATE":null,"OBJECT_ID":"2020-073K","APOAPSIS":"548.133","OBJECT_TYPE":"PAYLOAD","MEAN_ELEMENT_THEORY":"SGP4","ARG_OF_PERICENTER":"65.9107","BSTAR":"0.00092571000000","TIME_SYSTEM":"UTC","FILE":"3535519","OBJECT_NAME":"STARLINK-1773","MEAN_ANOMALY":"294.2026","ELEMENT_SET_NO":"999","TLE_LINE1":"1 46679U 20073K   22224.73730034  .00013539  00000-0  92571-3 0  9991","REF_FRAME":"TEME","MEAN_MOTION_DOT":"0.00013539","LAUNCH_DATE":"2020-10-18","GP_ID":"210105082","TLE_LINE2":"2 46679  53.0539 319.7824 0001386  65.9107 294.2026 15.06413028100724","CENTER_NAME":"EARTH","SEMIMAJOR_AXIS":"6925.309","PERIOD":"95.591","CLASSIFICATION_TYPE":"U","SITE":"AFETR","ECCENTRICITY":"0.00013860","RCS_SIZE":"LARGE","EPHEMERIS_TYPE":"0","EPOCH":"2022-08-12T17:41:42.749376","NORAD_CAT_ID":"46679","MEAN_MOTION":"15.06413028","COUNTRY_CODE":"US","REV_AT_EPOCH":"10072","RA_OF_ASC_NODE":"319.7824"},{"NORAD_CAT_ID":"46680","MEAN_MOTION":"15.06401785","RCS_SIZE":"LARGE","EPOCH":"2022-08-12T16:09:29.683008","EPHEMERIS_TYPE":"0","COUNTRY_CODE":"US","RA_OF_ASC_NODE":"355.0784","REV_AT_EPOCH":"10022","ECCENTRICITY":"0.00011940","SITE":"AFETR","CLASSIFICATION_TYPE":"U","SEMIMAJOR_AXIS":"6925.343","CENTER_NAME":"EARTH","PERIOD":"95.592","REF_FRAME":"TEME","ELEMENT_SET_NO":"999","TLE_LINE1":"1 46680U 20073L   22224.67326022  .00002717  00000-0  20118-3 0  9998","LAUNCH_DATE":"2020-10-18","MEAN_MOTION_DOT":"0.00002717","TLE_LINE2":"2 46680  53.0568 355.0784 0001194  84.5351 275.5774 15.06401785100225","GP_ID":"210105332","FILE":"3535519","MEAN_ANOMALY":"275.5774","OBJECT_NAME":"STARLINK-1774","OBJECT_TYPE":"PAYLOAD","ARG_OF_PERICENTER":"84.5351","MEAN_ELEMENT_THEORY":"SGP4","BSTAR":"0.00020118000000","TIME_SYSTEM":"UTC","INCLINATION":"53.0568","APOAPSIS":"548.035","DECAY_DATE":null,"OBJECT_ID":"2020-073L","MEAN_MOTION_DDOT":"0.0000000000000","PERIAPSIS":"546.381"},{"INCLINATION":"53.0560","APOAPSIS":"548.202","OBJECT_ID":"2020-073M","DECAY_DATE":null,"MEAN_MOTION_DDOT":"0.0000000000000","PERIAPSIS":"546.253","FILE":"3535519","MEAN_ANOMALY":"284.7604","OBJECT_NAME":"STARLINK-1775","MEAN_ELEMENT_THEORY":"SGP4","ARG_OF_PERICENTER":"75.3541","OBJECT_TYPE":"PAYLOAD","TIME_SYSTEM":"UTC","BSTAR":"0.00005693300000","SEMIMAJOR_AXIS":"6925.363","CENTER_NAME":"EARTH","PERIOD":"95.592","REF_FRAME":"TEME","TLE_LINE1":"1 46681U 20073M   22224.77645999  .00000567  00000-0  56933-4 0  9993","ELEMENT_SET_NO":"999","TLE_LINE2":"2 46681  53.0560 354.6015 0001407  75.3541 284.7604 15.06395430100230","GP_ID":"210105583","MEAN_MOTION_DOT":"0.00000567","LAUNCH_DATE":"2020-10-18","MEAN_MOTION":"15.06395430","NORAD_CAT_ID":"46681","EPOCH":"2022-08-12T18:38:06.143136","RCS_SIZE":"LARGE","EPHEMERIS_TYPE":"0","REV_AT_EPOCH":"10023","RA_OF_ASC_NODE":"354.6015","COUNTRY_CODE":"US","ECCENTRICITY":"0.00014070","SITE":"AFETR","CLASSIFICATION_TYPE":"U"},{"INCLINATION":"53.0569","APOAPSIS":"548.143","OBJECT_ID":"2020-073N","DECAY_DATE":null,"MEAN_MOTION_DDOT":"0.0000000000000","PERIAPSIS":"546.234","FILE":"3535519","MEAN_ANOMALY":"288.2274","OBJECT_NAME":"STARLINK-1776","MEAN_ELEMENT_THEORY":"SGP4","ARG_OF_PERICENTER":"71.8865","OBJECT_TYPE":"PAYLOAD","TIME_SYSTEM":"UTC","BSTAR":"0.00047046000000","SEMIMAJOR_AXIS":"6925.323","CENTER_NAME":"EARTH","PERIOD":"95.592","REF_FRAME":"TEME","TLE_LINE1":"1 46682U 20073N   22224.66956831  .00006734  00000-0  47046-3 0  9998","ELEMENT_SET_NO":"999","GP_ID":"210106334","TLE_LINE2":"2 46682  53.0569 355.0874 0001378  71.8865 288.2274 15.06408268100220","LAUNCH_DATE":"2020-10-18","MEAN_MOTION_DOT":"0.00006734","MEAN_MOTION":"15.06408268","NORAD_CAT_ID":"46682","RCS_SIZE":"LARGE","EPOCH":"2022-08-12T16:04:10.701984","EPHEMERIS_TYPE":"0","REV_AT_EPOCH":"10022","RA_OF_ASC_NODE":"355.0874","COUNTRY_CODE":"US","ECCENTRICITY":"0.00013780","CLASSIFICATION_TYPE":"U","SITE":"AFETR"},{"CLASSIFICATION_TYPE":"U","SITE":"AFETR","ECCENTRICITY":"0.00015340","EPHEMERIS_TYPE":"0","RCS_SIZE":"LARGE","EPOCH":"2022-08-12T17:23:08.269728","MEAN_MOTION":"15.06394268","NORAD_CAT_ID":"46684","RA_OF_ASC_NODE":"339.8448","REV_AT_EPOCH":"10044","COUNTRY_CODE":"US","TLE_LINE1":"1 46684U 20073Q   22224.72440127  .00004359  00000-0  31137-3 0  9998","ELEMENT_SET_NO":"999","REF_FRAME":"TEME","TLE_LINE2":"2 46684  53.0558 339.8448 0001534 103.8053 256.3107 15.06394268100445","GP_ID":"210104582","LAUNCH_DATE":"2020-10-18","MEAN_MOTION_DOT":"0.00004359","CENTER_NAME":"EARTH","SEMIMAJOR_AXIS":"6925.366","PERIOD":"95.593","ARG_OF_PERICENTER":"103.8053","MEAN_ELEMENT_THEORY":"SGP4","OBJECT_TYPE":"PAYLOAD","TIME_SYSTEM":"UTC","BSTAR":"0.00031137000000","FILE":"3535519","OBJECT_NAME":"STARLINK-1780","MEAN_ANOMALY":"256.3107","PERIAPSIS":"546.169","MEAN_MOTION_DDOT":"0.0000000000000","INCLINATION":"53.0558","OBJECT_ID":"2020-073Q","DECAY_DATE":null,"APOAPSIS":"548.293"},{"MEAN_MOTION":"15.06412732","NORAD_CAT_ID":"46685","EPOCH":"2022-08-12T18:42:03.353472","RCS_SIZE":"LARGE","EPHEMERIS_TYPE":"0","RA_OF_ASC_NODE":"354.5752","REV_AT_EPOCH":"10023","COUNTRY_CODE":"US","ECCENTRICITY":"0.00013680","CLASSIFICATION_TYPE":"U","SITE":"AFETR","SEMIMAJOR_AXIS":"6925.310","CENTER_NAME":"EARTH","PERIOD":"95.591","REF_FRAME":"TEME","TLE_LINE1":"1 46685U 20073R   22224.77920548  .00003853  00000-0  27733-3 0  9999","ELEMENT_SET_NO":"999","GP_ID":"210104832","TLE_LINE2":"2 46685  53.0546 354.5752 0001368  88.8296 271.2850 15.06412732100236","LAUNCH_DATE":"2020-10-18","MEAN_MOTION_DOT":"0.00003853","FILE":"3535519","MEAN_ANOMALY":"271.2850","OBJECT_NAME":"STARLINK-1781","ARG_OF_PERICENTER":"88.8296","MEAN_ELEMENT_THEORY":"SGP4","OBJECT_TYPE":"PAYLOAD","TIME_SYSTEM":"UTC","BSTAR":"0.00027733000000","INCLINATION":"53.0546","APOAPSIS":"548.122","OBJECT_ID":"2020-073R","DECAY_DATE":null,"MEAN_MOTION_DDOT":"0.0000000000000","PERIAPSIS":"546.227"},{"TIME_SYSTEM":"UTC","BSTAR":"0.00011013000000","MEAN_ELEMENT_THEORY":"SGP4","ARG_OF_PERICENTER":"87.9522","OBJECT_TYPE":"PAYLOAD","MEAN_ANOMALY":"272.1611","OBJECT_NAME":"STARLINK-1783","FILE":"3535519","MEAN_MOTION_DDOT":"0.0000000000000","PERIAPSIS":"546.398","APOAPSIS":"548.146","OBJECT_ID":"2020-073S","DECAY_DATE":null,"INCLINATION":"53.0571","ECCENTRICITY":"0.00012620","CLASSIFICATION_TYPE":"U","SITE":"AFETR","REV_AT_EPOCH":"10023","RA_OF_ASC_NODE":"354.6478","COUNTRY_CODE":"US","MEAN_MOTION":"15.06380944","NORAD_CAT_ID":"46686","EPHEMERIS_TYPE":"0","RCS_SIZE":"LARGE","EPOCH":"2022-08-12T18:10:13.462464","GP_ID":"210106084","TLE_LINE2":"2 46686  53.0571 354.6478 0001262  87.9522 272.1611 15.06380944100230","LAUNCH_DATE":"2020-10-18","MEAN_MOTION_DOT":"0.00001359","REF_FRAME":"TEME","TLE_LINE1":"1 46686U 20073S   22224.75710026  .00001359  00000-0  11013-3 0  9999","ELEMENT_SET_NO":"999","PERIOD":"95.593","SEMIMAJOR_AXIS":"6925.407","CENTER_NAME":"EARTH"},{"PERIAPSIS":"546.162","MEAN_MOTION_DDOT":"0.0000000000000","INCLINATION":"53.0545","OBJECT_ID":"2020-073T","DECAY_DATE":null,"APOAPSIS":"548.151","MEAN_ELEMENT_THEORY":"SGP4","ARG_OF_PERICENTER":"69.9351","OBJECT_TYPE":"PAYLOAD","TIME_SYSTEM":"UTC","BSTAR":"0.00088376000000","FILE":"3535519","OBJECT_NAME":"STARLINK-1784","MEAN_ANOMALY":"290.1792","TLE_LINE1":"1 46687U 20073T   22224.74837147  .00012913  00000-0  88376-3 0  9997","ELEMENT_SET_NO":"999","REF_FRAME":"TEME","GP_ID":"210105834","TLE_LINE2":"2 46687  53.0545 319.7392 0001436  69.9351 290.1792 15.06418609100726","LAUNCH_DATE":"2020-10-18","MEAN_MOTION_DOT":"0.00012913","CENTER_NAME":"EARTH","SEMIMAJOR_AXIS":"6925.292","PERIOD":"95.591","CLASSIFICATION_TYPE":"U","SITE":"AFETR","ECCENTRICITY":"0.00014360","EPOCH":"2022-08-12T17:57:39.295008","RCS_SIZE":"LARGE","EPHEMERIS_TYPE":"0","MEAN_MOTION":"15.06418609","NORAD_CAT_ID":"46687","REV_AT_EPOCH":"10072","RA_OF_ASC_NODE":"319.7392","COUNTRY_CODE":"US"},{"PERIOD":"95.592","CENTER_NAME":"EARTH","SEMIMAJOR_AXIS":"6925.350","MEAN_MOTION_DOT":"0.00000947","LAUNCH_DATE":"2020-10-18","GP_ID":"210105083","TLE_LINE2":"2 46689  53.0558 354.6191 0001307  88.7481 271.3657 15.06399589101487","ELEMENT_SET_NO":"999","TLE_LINE1":"1 46689U 20073V   22224.77277881  .00000947  00000-0  82475-4 0  9994","REF_FRAME":"TEME","COUNTRY_CODE":"US","RA_OF_ASC_NODE":"354.6191","REV_AT_EPOCH":"10148","EPHEMERIS_TYPE":"0","RCS_SIZE":"LARGE","EPOCH":"2022-08-12T18:32:48.089184","NORAD_CAT_ID":"46689","MEAN_MOTION":"15.06399589","SITE":"AFETR","CLASSIFICATION_TYPE":"U","ECCENTRICITY":"0.00013070","DECAY_DATE":null,"OBJECT_ID":"2020-073V","APOAPSIS":"548.120","INCLINATION":"53.0558","PERIAPSIS":"546.310","MEAN_MOTION_DDOT":"0.0000000000000","OBJECT_NAME":"STARLINK-1788","MEAN_ANOMALY":"271.3657","FILE":"3535519","BSTAR":"0.00008247500000","TIME_SYSTEM":"UTC","OBJECT_TYPE":"PAYLOAD","ARG_OF_PERICENTER":"88.7481","MEAN_ELEMENT_THEORY":"SGP4"},{"FILE":"3535519","OBJECT_NAME":"STARLINK-1789","MEAN_ANOMALY":"250.8777","OBJECT_TYPE":"PAYLOAD","ARG_OF_PERICENTER":"109.2341","MEAN_ELEMENT_THEORY":"SGP4","BSTAR":"0.00027296000000","TIME_SYSTEM":"UTC","INCLINATION":"53.0561","DECAY_DATE":null,"OBJECT_ID":"2020-073W","APOAPSIS":"548.031","PERIAPSIS":"546.386","MEAN_MOTION_DDOT":"0.0000000000000","EPHEMERIS_TYPE":"0","RCS_SIZE":"LARGE","EPOCH":"2022-08-12T18:33:27.621504","NORAD_CAT_ID":"46690","MEAN_MOTION":"15.06401702","COUNTRY_CODE":"US","REV_AT_EPOCH":"10058","RA_OF_ASC_NODE":"329.6219","CLASSIFICATION_TYPE":"U","SITE":"AFETR","ECCENTRICITY":"0.00011880","CENTER_NAME":"EARTH","SEMIMAJOR_AXIS":"6925.343","PERIOD":"95.592","ELEMENT_SET_NO":"999","TLE_LINE1":"1 46690U 20073W   22224.77323636  .00003787  00000-0  27296-3 0  9990","REF_FRAME":"TEME","MEAN_MOTION_DOT":"0.00003787","LAUNCH_DATE":"2020-10-18","TLE_LINE2":"2 46690  53.0561 329.6219 0001188 109.2341 250.8777 15.06401702100583","GP_ID":"210105333"}];
